CCSDS_OMM_VERS = 2.0
CREATION_DATE  = 
ORIGINATOR     = 

OBJECT_NAME    = 2026-027G
OBJECT_ID      = 2026-027G
CENTER_NAME    = EARTH
REF_FRAME      = TEME
TIME_SYSTEM    = UTC
MEAN_ELEMENT_THEORY = SGP/SGP4

EPOCH          = 2026-03-09T21:53:37.288032
MEAN_MOTION    = 15.12145257
ECCENTRICITY   = .00120269
INCLINATION    = 97.4906
RA_OF_ASC_NODE = 197.8999
ARG_OF_PERICENTER = 227.3105
MEAN_ANOMALY   = 132.7114

EPHEMERIS_TYPE = 0
CLASSIFICATION_TYPE = U
NORAD_CAT_ID   = 67752
ELEMENT_SET_NO = 999
REV_AT_EPOCH   = 389
BSTAR          = .53594907E-3
MEAN_MOTION_DOT = .9195E-4
MEAN_MOTION_DDOT = 0

CCSDS_OMM_VERS = 2.0
CREATION_DATE  = 
ORIGINATOR     = 

OBJECT_NAME    = JIELONG-3 R/B
OBJECT_ID      = 2026-027H
CENTER_NAME    = EARTH
REF_FRAME      = TEME
TIME_SYSTEM    = UTC
MEAN_ELEMENT_THEORY = SGP/SGP4

EPOCH          = 2026-03-09T22:52:28.951104
MEAN_MOTION    = 15.76303399
ECCENTRICITY   = .02123753
INCLINATION    = 97.5118
RA_OF_ASC_NODE = 200.0017
ARG_OF_PERICENTER = 243.8970
MEAN_ANOMALY   = 114.0305

EPHEMERIS_TYPE = 0
CLASSIFICATION_TYPE = U
NORAD_CAT_ID   = 67753
ELEMENT_SET_NO = 999
REV_AT_EPOCH   = 402
BSTAR          = .72450109E-3
MEAN_MOTION_DOT = .557901E-2
MEAN_MOTION_DDOT = .2368277E-5

CCSDS_OMM_VERS = 2.0
CREATION_DATE  = 
ORIGINATOR     = 

OBJECT_NAME    = JIELONG-3 DEB
OBJECT_ID      = 2026-027J
CENTER_NAME    = EARTH
REF_FRAME      = TEME
TIME_SYSTEM    = UTC
MEAN_ELEMENT_THEORY = SGP/SGP4

EPOCH          = 2026-03-09T14:03:00.233568
MEAN_MOTION    = 16.38523310
ECCENTRICITY   = .0053557
INCLINATION    = 97.4912
RA_OF_ASC_NODE = 200.1849
ARG_OF_PERICENTER = 253.0553
MEAN_ANOMALY   = 106.4871

EPHEMERIS_TYPE = 0
CLASSIFICATION_TYPE = U
NORAD_CAT_ID   = 67754
ELEMENT_SET_NO = 999
REV_AT_EPOCH   = 394
BSTAR          = .30812E-3
MEAN_MOTION_DOT = .12424544E+0
MEAN_MOTION_DDOT = .23987E-5

CCSDS_OMM_VERS = 2.0
CREATION_DATE  = 
ORIGINATOR     = 

OBJECT_NAME    = 2026-028A
OBJECT_ID      = 2026-028A
CENTER_NAME    = EARTH
REF_FRAME      = TEME
TIME_SYSTEM    = UTC
MEAN_ELEMENT_THEORY = SGP/SGP4

EPOCH          = 2026-03-09T07:40:28.852896
MEAN_MOTION    = 1.00243716
ECCENTRICITY   = .00057941
INCLINATION    = 0.4715
RA_OF_ASC_NODE = 290.2917
ARG_OF_PERICENTER = 45.6684
MEAN_ANOMALY   = 23.9912

EPHEMERIS_TYPE = 0
CLASSIFICATION_TYPE = U
NORAD_CAT_ID   = 67756
ELEMENT_SET_NO = 999
REV_AT_EPOCH   = 25
BSTAR          = 0
MEAN_MOTION_DOT = -.107E-5
MEAN_MOTION_DDOT = 0

CCSDS_OMM_VERS = 2.0
CREATION_DATE  = 
ORIGINATOR     = 

OBJECT_NAME    = JAM-E JAM 1
OBJECT_ID      = 2026-028B
CENTER_NAME    = EARTH
REF_FRAME      = TEME
TIME_SYSTEM    = UTC
MEAN_ELEMENT_THEORY = SGP/SGP4

EPOCH          = 2026-03-09T22:49:38.716320
MEAN_MOTION    = 1.00229912
ECCENTRICITY   = .00057046
INCLINATION    = 0.4923
RA_OF_ASC_NODE = 285.9416
ARG_OF_PERICENTER = 134.1943
MEAN_ANOMALY   = 124.2495

EPHEMERIS_TYPE = 0
CLASSIFICATION_TYPE = U
NORAD_CAT_ID   = 67757
ELEMENT_SET_NO = 999
REV_AT_EPOCH   = 12
BSTAR          = 0
MEAN_MOTION_DOT = .157E-5
MEAN_MOTION_DDOT = 0

CCSDS_OMM_VERS = 2.0
CREATION_DATE  = 
ORIGINATOR     = 

OBJECT_NAME    = KUIPER-00159
OBJECT_ID      = 2026-030A
CENTER_NAME    = EARTH
REF_FRAME      = TEME
TIME_SYSTEM    = UTC
MEAN_ELEMENT_THEORY = SGP/SGP4

EPOCH          = 2026-03-09T15:10:26.374944
MEAN_MOTION    = 15.35788737
ECCENTRICITY   = .0005012
INCLINATION    = 51.8841
RA_OF_ASC_NODE = 219.4438
ARG_OF_PERICENTER = 44.9181
MEAN_ANOMALY   = 315.2210

EPHEMERIS_TYPE = 0
CLASSIFICATION_TYPE = U
NORAD_CAT_ID   = 67764
ELEMENT_SET_NO = 999
REV_AT_EPOCH   = 508
BSTAR          = .76096E-3
MEAN_MOTION_DOT = .2662E-3
MEAN_MOTION_DDOT = 0

CCSDS_OMM_VERS = 2.0
CREATION_DATE  = 
ORIGINATOR     = 

OBJECT_NAME    = KUIPER-00160
OBJECT_ID      = 2026-030B
CENTER_NAME    = EARTH
REF_FRAME      = TEME
TIME_SYSTEM    = UTC
MEAN_ELEMENT_THEORY = SGP/SGP4

EPOCH          = 2026-03-09T18:20:16.137888
MEAN_MOTION    = 15.35623214
ECCENTRICITY   = .00052725
INCLINATION    = 51.8805
RA_OF_ASC_NODE = 218.8175
ARG_OF_PERICENTER = 54.1950
MEAN_ANOMALY   = 305.9525

EPHEMERIS_TYPE = 0
CLASSIFICATION_TYPE = U
NORAD_CAT_ID   = 67765
ELEMENT_SET_NO = 999
REV_AT_EPOCH   = 510
BSTAR          = .10485695E-2
MEAN_MOTION_DOT = .36682E-3
MEAN_MOTION_DDOT = 0

CCSDS_OMM_VERS = 2.0
CREATION_DATE  = 
ORIGINATOR     = 

OBJECT_NAME    = KUIPER-00177
OBJECT_ID      = 2026-030C
CENTER_NAME    = EARTH
REF_FRAME      = TEME
TIME_SYSTEM    = UTC
MEAN_ELEMENT_THEORY = SGP/SGP4

EPOCH          = 2026-03-09T22:40:13.687104
MEAN_MOTION    = 15.35467467
ECCENTRICITY   = .00021592
INCLINATION    = 51.8837
RA_OF_ASC_NODE = 217.7875
ARG_OF_PERICENTER = 172.5497
MEAN_ANOMALY   = 187.5522

EPHEMERIS_TYPE = 0
CLASSIFICATION_TYPE = U
NORAD_CAT_ID   = 67766
ELEMENT_SET_NO = 999
REV_AT_EPOCH   = 513
BSTAR          = -.15747205E-1
MEAN_MOTION_DOT = -.515419E-2
MEAN_MOTION_DDOT = 0

CCSDS_OMM_VERS = 2.0
CREATION_DATE  = 
ORIGINATOR     = 

OBJECT_NAME    = KUIPER-00178
OBJECT_ID      = 2026-030D
CENTER_NAME    = EARTH
REF_FRAME      = TEME
TIME_SYSTEM    = UTC
MEAN_ELEMENT_THEORY = SGP/SGP4

EPOCH          = 2026-03-09T15:15:28.534752
MEAN_MOTION    = 15.35571325
ECCENTRICITY   = .0006451
INCLINATION    = 51.8828
RA_OF_ASC_NODE = 219.4634
ARG_OF_PERICENTER = 46.2779
MEAN_ANOMALY   = 313.8741

EPHEMERIS_TYPE = 0
CLASSIFICATION_TYPE = U
NORAD_CAT_ID   = 67767
ELEMENT_SET_NO = 999
REV_AT_EPOCH   = 508
BSTAR          = .70511E-3
MEAN_MOTION_DOT = .24464E-3
MEAN_MOTION_DDOT = 0

CCSDS_OMM_VERS = 2.0
CREATION_DATE  = 
ORIGINATOR     = 

OBJECT_NAME    = KUIPER-00180
OBJECT_ID      = 2026-030E
CENTER_NAME    = EARTH
REF_FRAME      = TEME
TIME_SYSTEM    = UTC
MEAN_ELEMENT_THEORY = SGP/SGP4

EPOCH          = 2026-03-09T22:29:40.634304
MEAN_MOTION    = 15.31865817
ECCENTRICITY   = .00157227
INCLINATION    = 51.8823
RA_OF_ASC_NODE = 218.4640
ARG_OF_PERICENTER = 75.5448
MEAN_ANOMALY   = 284.7280

EPHEMERIS_TYPE = 0
CLASSIFICATION_TYPE = U
NORAD_CAT_ID   = 67768
ELEMENT_SET_NO = 999
REV_AT_EPOCH   = 512
BSTAR          = .11360708E-1
MEAN_MOTION_DOT = .373574E-2
MEAN_MOTION_DDOT = 0

CCSDS_OMM_VERS = 2.0
CREATION_DATE  = 
ORIGINATOR     = 

OBJECT_NAME    = KUIPER-00197
OBJECT_ID      = 2026-030F
CENTER_NAME    = EARTH
REF_FRAME      = TEME
TIME_SYSTEM    = UTC
MEAN_ELEMENT_THEORY = SGP/SGP4

EPOCH          = 2026-03-09T10:14:11.772960
MEAN_MOTION    = 15.36379862
ECCENTRICITY   = .00016005
INCLINATION    = 51.8831
RA_OF_ASC_NODE = 220.3144
ARG_OF_PERICENTER = 67.2198
MEAN_ANOMALY   = 292.8958

EPHEMERIS_TYPE = 0
CLASSIFICATION_TYPE = U
NORAD_CAT_ID   = 67769
ELEMENT_SET_NO = 999
REV_AT_EPOCH   = 505
BSTAR          = .13525672E-2
MEAN_MOTION_DOT = .48662E-3
MEAN_MOTION_DDOT = 0

CCSDS_OMM_VERS = 2.0
CREATION_DATE  = 
ORIGINATOR     = 

OBJECT_NAME    = KUIPER-00198
OBJECT_ID      = 2026-030G
CENTER_NAME    = EARTH
REF_FRAME      = TEME
TIME_SYSTEM    = UTC
MEAN_ELEMENT_THEORY = SGP/SGP4

EPOCH          = 2026-03-09T15:03:31.007808
MEAN_MOTION    = 15.36089150
ECCENTRICITY   = .0003583
INCLINATION    = 51.8806
RA_OF_ASC_NODE = 219.4038
ARG_OF_PERICENTER = 35.8948
MEAN_ANOMALY   = 324.2279

EPHEMERIS_TYPE = 0
CLASSIFICATION_TYPE = U
NORAD_CAT_ID   = 67770
ELEMENT_SET_NO = 999
REV_AT_EPOCH   = 508
BSTAR          = .95567E-3
MEAN_MOTION_DOT = .33885E-3
MEAN_MOTION_DDOT = 0

CCSDS_OMM_VERS = 2.0
CREATION_DATE  = 
ORIGINATOR     = 

OBJECT_NAME    = KUIPER-00199
OBJECT_ID      = 2026-030H
CENTER_NAME    = EARTH
REF_FRAME      = TEME
TIME_SYSTEM    = UTC
MEAN_ELEMENT_THEORY = SGP/SGP4

EPOCH          = 2026-03-09T20:22:54.746400
MEAN_MOTION    = 15.34402964
ECCENTRICITY   = .00108419
INCLINATION    = 51.8811
RA_OF_ASC_NODE = 218.6320
ARG_OF_PERICENTER = 59.6620
MEAN_ANOMALY   = 300.5437

EPHEMERIS_TYPE = 0
CLASSIFICATION_TYPE = U
NORAD_CAT_ID   = 67771
ELEMENT_SET_NO = 999
REV_AT_EPOCH   = 511
BSTAR          = .10339616E-2
MEAN_MOTION_DOT = .34812E-3
MEAN_MOTION_DDOT = 0

CCSDS_OMM_VERS = 2.0
CREATION_DATE  = 
ORIGINATOR     = 

OBJECT_NAME    = KUIPER-00200
OBJECT_ID      = 2026-030J
CENTER_NAME    = EARTH
REF_FRAME      = TEME
TIME_SYSTEM    = UTC
MEAN_ELEMENT_THEORY = SGP/SGP4

EPOCH          = 2026-03-09T16:14:07.210176
MEAN_MOTION    = 15.37115765
ECCENTRICITY   = .00010486
INCLINATION    = 51.8819
RA_OF_ASC_NODE = 218.9881
ARG_OF_PERICENTER = 264.9914
MEAN_ANOMALY   = 95.0953

EPHEMERIS_TYPE = 0
CLASSIFICATION_TYPE = U
NORAD_CAT_ID   = 67772
ELEMENT_SET_NO = 999
REV_AT_EPOCH   = 509
BSTAR          = .70618576E-3
MEAN_MOTION_DOT = .25755E-3
MEAN_MOTION_DDOT = 0

CCSDS_OMM_VERS = 2.0
CREATION_DATE  = 
ORIGINATOR     = 

OBJECT_NAME    = KUIPER-00203
OBJECT_ID      = 2026-030K
CENTER_NAME    = EARTH
REF_FRAME      = TEME
TIME_SYSTEM    = UTC
MEAN_ELEMENT_THEORY = SGP/SGP4

EPOCH          = 2026-03-09T22:00:01.999584
MEAN_MOTION    = 15.12119903
ECCENTRICITY   = .00114753
INCLINATION    = 51.8873
RA_OF_ASC_NODE = 219.0557
ARG_OF_PERICENTER = 61.3884
MEAN_ANOMALY   = 261.5536

EPHEMERIS_TYPE = 0
CLASSIFICATION_TYPE = U
NORAD_CAT_ID   = 67773
ELEMENT_SET_NO = 999
REV_AT_EPOCH   = 368
BSTAR          = -.68919543E-1
MEAN_MOTION_DOT = -.1112832E-1
MEAN_MOTION_DDOT = 0

